{
    "type": "FeatureCollection",
    "features": [
        {
            "type": "Feature",
            "properties": {
                "district": "Angul"
            },
            "geometry": {
                "type": "Polygon",
                "coordinates": [
                    [
                        [
                            84.84504141995671,
                            20.52208069087037
                        ],
                        [
                            84.85463740832311,
                            20.525108346920025
                        ],
                        [
                            84.86163369653106,
                            20.530557388864757
                        ],
                        [
                            84.86979836049717,
                            20.540759779663635
                        ],
                        [
                            84.87500215300815,
                            20.551840712431645
                        ],
                        [
                            84.88437516736276,
                            20.558021037381792
                        ],
                        [
                            84.88907055165663,
                            20.562689680958552
                        ],
                        [
                            84.89128678450977,
                            20.569159853997245
                        ],
                        [
                            84.89160338211163,
                            20.57419865169676
                        ],
                        [
                            84.90482902743875,
                            20.574992319861988
                        ],
                        [
                            84.91999893626114,
                            20.573641201773547
                        ],
                        [
                            84.93759895175404,
                            20.57516174771244
                        ],
                        [
                            84.94476476431689,
                            20.57460883316807
                        ],
                        [
                            84.95181461121592,
                            20.56983762179491
                        ],
                        [
                            84.9601040648571,
                            20.567420741696424
                        ],
                        [
                            84.97058294934844,
                            20.5678979354069
                        ],
                        [
                            84.97442666462142,
                            20.566890174147744
                        ],
                        [
                            84.97778884652938,
                            20.56161950974374
                        ],
                        [
                            84.97995595900969,
                            20.56091050285687
                        ],
                        [
                            84.98322448510056,
                            20.564598144592892
                        ],
                        [
                            84.98523553478712,
                            20.570617952524
                        ],
                        [
                            84.9859311561432,
                            20.576450489991533
                        ],
                        [
                            84.99355179536647,
                            20.57520193096922
                        ],
                        [
                            85.00344652747656,
                            20.578318830102038
                        ],
                        [
                            85.02068988260027,
                            20.581239501096785
                        ],
                        [
                            85.04342685591762,
                            20.576272130775806
                        ],
                        [
                            85.05143534374665,
                            20.570131898607997
                        ],
                        [
                            85.06078167105117,
                            20.57084091770703
                        ],
                        [
                            85.06199454672979,
                            20.574591063556568
                        ],
                        [
                            85.0643756845342,
                            20.57631222660513
                        ],
                        [
                            85.06701543668039,
                            20.573882029529916
                        ],
                        [
                            85.07102423254422,
                            20.57501019162234
                        ],
                        [
                            85.0753762700057,
                            20.583946227986072
                        ],
                        [
                            85.08212292377033,
                            20.590331642941127
                        ],
                        [
                            85.08331347148712,
                            20.60032000054037
                        ],
                        [
                            85.08685399047089,
                            20.604689973639598
                        ],
                        [
                            85.11358628363793,
                            20.602919721223692
                        ],
                        [
                            85.1167968828337,
                            20.60378032619073
                        ],
                        [
                            85.12320905431903,
                            20.609108880875546
                        ],
                        [
                            85.12742735712217,
                            20.627721200277588
                        ],
                        [
                            85.13060668367933,
                            20.633308443785136
                        ],
                        [
                            85.1212158736626,
                            20.645941080861192
                        ],
                        [
                            85.1186607867065,
                            20.655751083920578
                        ],
                        [
                            85.10869469741812,
                            20.675768057295553
                        ],
                        [
                            85.11402774906425,
                            20.686960391500115
                        ],
                        [
                            85.11898180189054,
                            20.69380957898372
                        ],
                        [
                            85.12586224280008,
                            20.70019055500355
                        ],
                        [
                            85.12906833282703,
                            20.704801265844463
                        ],
                        [
                            85.13027228041643,
                            20.712591262473083
                        ],
                        [
                            85.13437022368186,
                            20.723368925411144
                        ],
                        [
                            85.13861078580003,
                            20.723297599690042
                        ],
                        [
                            85.14742199456045,
                            20.725402256688106
                        ],
                        [
                            85.14743085649881,
                            20.71673828325711
                        ],
                        [
                            85.15283083650952,
                            20.70568857116346
                        ],
                        [
                            85.1559655899079,
                            20.701809174876335
                        ],
                        [
                            85.16029982211171,
                            20.700801435867433
                        ],
                        [
                            85.16549471011785,
                            20.698192811989927
                        ],
                        [
                            85.16924931538186,
                            20.694482828260803
                        ],
                        [
                            85.16873204306206,
                            20.690732725084118
                        ],
                        [
                            85.16599856607453,
                            20.6848511817233
                        ],
                        [
                            85.16049157485452,
                            20.677248435306428
                        ],
                        [
                            85.16124521048795,
                            20.67296771063418
                        ],
                        [
                            85.1585786849289,
                            20.66923985570513
                        ],
                        [
                            85.16227079345181,
                            20.658649495340036
                        ],
                        [
                            85.16287276580542,
                            20.655702102903927
                        ],
                        [
                            85.16194077376564,
                            20.6528215222209
                        ],
                        [
                            85.1664891291127,
                            20.655229409954067
                        ],
                        [
                            85.18039701863094,
                            20.666319160849365
                        ],
                        [
                            85.19079565447541,
                            20.671469470913763
                        ],
                        [
                            85.1904522853241,
                            20.675397962294817
                        ],
                        [
                            85.19168304392774,
                            20.678278515567158
                        ],
                        [
                            85.19170976658914,
                            20.682251515512434
                        ],
                        [
                            85.19080901602251,
                            20.686180059359604
                        ],
                        [
                            85.19267295967911,
                            20.702411186655215
                        ],
                        [
                            85.19632049694714,
                            20.710058489669198
                        ],
                        [
                            85.19889785075641,
                            20.71247977413023
                        ],
                        [
                            85.19854109329033,
                            20.723400123805014
                        ],
                        [
                            85.20062350298186,
                            20.730209195334528
                        ],
                        [
                            85.20992070101869,
                            20.743149531147154
                        ],
                        [
                            85.2082886829092,
                            20.746279793792684
                        ],
                        [
                            85.20314737964306,
                            20.74965085601629
                        ],
                        [
                            85.20226444303583,
                            20.754052033449078
                        ],
                        [
                            85.20378945617827,
                            20.759001590985946
                        ],
                        [
                            85.2018453396204,
                            20.764722594837778
                        ],
                        [
                            85.19497829324777,
                            20.772432415216265
                        ],
                        [
                            85.1930073813223,
                            20.777404277513856
                        ],
                        [
                            85.1955178507263,
                            20.782010560026375
                        ],
                        [
                            85.19892014308076,
                            20.783499899438947
                        ],
                        [
                            85.20345502084119,
                            20.782041822305043
                        ],
                        [
                            85.207811611392,
                            20.779473324920854
                        ],
                        [
                            85.21174005695237,
                            20.779749795240964
                        ],
                        [
                            85.21462956389566,
                            20.78683973669681
                        ],
                        [
                            85.21940527163653,
                            20.787740486157347
                        ],
                        [
                            85.22482302892203,
                            20.78737929072476
                        ],
                        [
                            85.23111041674437,
                            20.785840926083125
                        ],
                        [
                            85.23869528429276,
                            20.7891005651981
                        ],
                        [
                            85.2508374102358,
                            20.79042045772089
                        ],
                        [
                            85.24977169414015,
                            20.792690119299504
                        ],
                        [
                            85.25126553891631,
                            20.8015682118865
                        ],
                        [
                            85.25110055853047,
                            20.807521126425296
                        ],
                        [
                            85.2484607260015,
                            20.81861083695587
                        ],
                        [
                            85.2480638516555,
                            20.824037577824516
                        ],
                        [
                            85.24862571431399,
                            20.829459886474982
                        ],
                        [
                            85.25254082295135,
                            20.83712063883352
                        ],
                        [
                            85.25403017001751,
                            20.862568678678596
                        ],
                        [
                            85.25328996349221,
                            20.870082278091896
                        ],
                        [
                            85.2515508772079,
                            20.87292271918417
                        ],
                        [
                            85.24326140542276,
                            20.878139876545678
                        ],
                        [
                            85.24558460554287,
                            20.879749600657043
                        ],
                        [
                            85.25974228927454,
                            20.88228240140351
                        ],
                        [
                            85.26191832128674,
                            20.884868612530195
                        ],
                        [
                            85.25466336128191,
                            20.88870793308548
                        ],
                        [
                            85.2436003382634,
                            20.891878343371406
                        ],
                        [
                            85.23928836591088,
                            20.89421045125575
                        ],
                        [
                            85.23707667924289,
                            20.89767963434629
                        ],
                        [
                            85.23635875854232,
                            20.901492200392692
                        ],
                        [
                            85.23758501641373,
                            20.91222074331681
                        ],
                        [
                            85.24141094218199,
                            20.92404187993122
                        ],
                        [
                            85.24172303005297,
                            20.927038393796664
                        ],
                        [
                            85.24172303005297,
                            20.939791406062987
                        ],
                        [
                            85.23866858441042,
                            20.954359307849582
                        ],
                        [
                            85.24051463745243,
                            20.95896104951703
                        ],
                        [
                            85.24368501190715,
                            20.962519420658747
                        ],
                        [
                            85.25276376559059,
                            20.968079968945823
                        ],
                        [
                            85.25607241861297,
                            20.97112996820382
                        ],
                        [
                            85.25775798053306,
                            20.97446092516256
                        ],
                        [
                            85.25634888748122,
                            20.978340359157652
                        ],
                        [
                            85.25055649093248,
                            20.987829263063606
                        ],
                        [
                            85.24363153798873,
                            20.99516005549101
                        ],
                        [
                            85.22367257840034,
                            21.01122178095748
                        ],
                        [
                            85.21269428591854,
                            21.016942760763268
                        ],
                        [
                            85.19490247808193,
                            21.029758189675196
                        ],
                        [
                            85.17314206936074,
                            21.03598761342216
                        ],
                        [
                            85.1670553831015,
                            21.038770088855888
                        ],
                        [
                            85.1635148360629,
                            21.043519020171452
                        ],
                        [
                            85.1616911218995,
                            21.04787111846912
                        ],
                        [
                            85.16285488866563,
                            21.052111734837457
                        ],
                        [
                            85.16671653310833,
                            21.056981025634773
                        ],
                        [
                            85.17378417857368,
                            21.070278081044947
                        ],
                        [
                            85.18026772708313,
                            21.07500920048894
                        ],
                        [
                            85.18929297369874,
                            21.075160785181506
                        ],
                        [
                            85.2144466922022,
                            21.06674197753688
                        ],
                        [
                            85.22718193040669,
                            21.065850214518814
                        ],
                        [
                            85.23581470302021,
                            21.095650374860416
                        ],
                        [
                            85.24487114008848,
                            21.10867983052613
                        ],
                        [
                            85.23813790181134,
                            21.11869051579651
                        ],
                        [
                            85.24993225577265,
                            21.128090287969908
                        ],
                        [
                            85.25419514160508,
                            21.13490823988722
                        ],
                        [
                            85.2558048718649,
                            21.139737470308635
                        ],
                        [
                            85.25681266660719,
                            21.14698802732272
                        ],
                        [
                            85.25977347983392,
                            21.151959894653146
                        ],
                        [
                            85.2604691431483,
                            21.157979644693107
                        ],
                        [
                            85.2627254478869,
                            21.16465046423289
                        ],
                        [
                            85.26772404652691,
                            21.168672600349296
                        ],
                        [
                            85.27909921581995,
                            21.169430683265787
                        ],
                        [
                            85.28514132456341,
                            21.175490530875088
                        ],
                        [
                            85.29498254663166,
                            21.171129526056397
                        ],
                        [
                            85.31482557758359,
                            21.154969817325483
                        ],
                        [
                            85.32956734388804,
                            21.17082190124104
                        ],
                        [
                            85.33371876164921,
                            21.171232081362835
                        ],
                        [
                            85.33490932902713,
                            21.17396105044003
                        ],
                        [
                            85.33898945510374,
                            21.165252420891697
                        ],
                        [
                            85.34536593343053,
                            21.163210221215497
                        ],
                        [
                            85.35515808485522,
                            21.163691794953433
                        ],
                        [
                            85.35914006269435,
                            21.16562252852468
                        ],
                        [
                            85.3751928714927,
                            21.163718561727528
                        ],
                        [
                            85.37780586923843,
                            21.16440081689677
                        ],
                        [
                            85.38886445173588,
                            21.179481473090405
                        ],
                        [
                            85.37719947457745,
                            21.193518676613927
                        ],
                        [
                            85.37648149960123,
                            21.204149181244425
                        ],
                        [
                            85.3772440719203,
                            21.21057919503933
                        ],
                        [
                            85.36292140312577,
                            21.23555909630529
                        ],
                        [
                            85.3596484497756,
                            21.23777977094733
                        ],
                        [
                            85.3434975512703,
                            21.245391384359934
                        ],
                        [
                            85.33651905342323,
                            21.252280769333346
                        ],
                        [
                            85.31456691598596,
                            21.25570084432939
                        ],
                        [
                            85.3071514297903,
                            21.25875984731348
                        ],
                        [
                            85.29413533306382,
                            21.270799380396692
                        ],
                        [
                            85.28481133017914,
                            21.264240069697085
                        ],
                        [
                            85.2842495222044,
                            21.261350532650543
                        ],
                        [
                            85.28114147873922,
                            21.2603740242176
                        ],
                        [
                            85.27498793737728,
                            21.264199873928234
                        ],
                        [
                            85.26788455567005,
                            21.27003687498099
                        ],
                        [
                            85.26888344412191,
                            21.277920559436936
                        ],
                        [
                            85.27224559806339,
                            21.279998550293627
                        ],
                        [
                            85.27255324771292,
                            21.282901429164625
                        ],
                        [
                            85.27224559806339,
                            21.287810872399415
                        ],
                        [
                            85.2675100072882,
                            21.2942007904594
                        ],
                        [
                            85.26857127369661,
                            21.296590853697666
                        ],
                        [
                            85.27266471798372,
                            21.295908627566746
                        ],
                        [
                            85.2769008940201,
                            21.294009044625362
                        ],
                        [
                            85.27913489470279,
                            21.294847351310846
                        ],
                        [
                            85.28376790027382,
                            21.299498137235354
                        ],
                        [
                            85.28721477405465,
                            21.30013137458102
                        ],
                        [
                            85.2906126590411,
                            21.302030903347198
                        ],
                        [
                            85.29117448068033,
                            21.308982670887577
                        ],
                        [
                            85.30264325242209,
                            21.31304045288453
                        ],
                        [
                            85.30673225810033,
                            21.316340152907337
                        ],
                        [
                            85.30972879564978,
                            21.323911727404273
                        ],
                        [
                            85.31365279498986,
                            21.32292185879312
                        ],
                        [
                            85.31685443915238,
                            21.317539645604892
                        ],
                        [
                            85.3206178883565,
                            21.314480760999622
                        ],
                        [
                            85.32321757110273,
                            21.318971035055863
                        ],
                        [
                            85.32740022936179,
                            21.333030563302827
                        ],
                        [
                            85.32874243252488,
                            21.340860767871067
                        ],
                        [
                            85.33098535789924,
                            21.345921897853447
                        ],
                        [
                            85.33529729477034,
                            21.349979672164608
                        ],
                        [
                            85.33763827830722,
                            21.35389030907932
                        ],
                        [
                            85.33587695145644,
                            21.360413928114845
                        ],
                        [
                            85.33367862350987,
                            21.365051387456084
                        ],
                        [
                            85.32496558311648,
                            21.372672008328582
                        ],
                        [
                            85.32434124883076,
                            21.37791144391581
                        ],
                        [
                            85.30970205143808,
                            21.387302311070776
                        ],
                        [
                            85.30107813630646,
                            21.389991134099294
                        ],
                        [
                            85.30262542063942,
                            21.399038669488338
                        ],
                        [
                            85.29918748640812,
                            21.409098438139022
                        ],
                        [
                            85.28407114420516,
                            21.41516274310748
                        ],
                        [
                            85.27703911563644,
                            21.419679836768488
                        ],
                        [
                            85.2691197418995,
                            21.42227054591136
                        ],
                        [
                            85.26445557401625,
                            21.434461808693236
                        ],
                        [
                            85.25662093275248,
                            21.43761878257436
                        ],
                        [
                            85.25475251920616,
                            21.440659917176763
                        ],
                        [
                            85.25312048772598,
                            21.446358656409817
                        ],
                        [
                            85.25710247721739,
                            21.449841179263796
                        ],
                        [
                            85.26233744113956,
                            21.450211348760632
                        ],
                        [
                            85.27439042570786,
                            21.44485149034172
                        ],
                        [
                            85.2804547602412,
                            21.447660664963177
                        ],
                        [
                            85.28444123844199,
                            21.44282255287941
                        ],
                        [
                            85.28844999837224,
                            21.44339784428433
                        ],
                        [
                            85.29178538315892,
                            21.441190581339082
                        ],
                        [
                            85.29386331601677,
                            21.441047877898402
                        ],
                        [
                            85.29733251713742,
                            21.442091264049306
                        ],
                        [
                            85.30259867295452,
                            21.44437884218801
                        ],
                        [
                            85.30658511726676,
                            21.455370483760507
                        ],
                        [
                            85.3189948380194,
                            21.46192096189506
                        ],
                        [
                            85.3209746421923,
                            21.464270827895632
                        ],
                        [
                            85.32488971063451,
                            21.472078750504036
                        ],
                        [
                            85.32721741777614,
                            21.47483894914681
                        ],
                        [
                            85.32775244357317,
                            21.476809853481676
                        ],
                        [
                            85.32614277612618,
                            21.47903939154295
                        ],
                        [
                            85.32534013294108,
                            21.48371704792291
                        ],
                        [
                            85.32599560867057,
                            21.488122600126218
                        ],
                        [
                            85.3243858894423,
                            21.492670845716212
                        ],
                        [
                            85.32296786180189,
                            21.50530798201596
                        ],
                        [
                            85.31659136978861,
                            21.5213518108397
                        ],
                        [
                            85.31785771965431,
                            21.52385786997727
                        ],
                        [
                            85.31823673544531,
                            21.52687220847614
                        ],
                        [
                            85.31516446265522,
                            21.529543185822295
                        ],
                        [
                            85.31127165417972,
                            21.531219792375232
                        ],
                        [
                            85.30574684089207,
                            21.52939153926849
                        ],
                        [
                            85.30198781223746,
                            21.526439613047543
                        ],
                        [
                            85.29825551187471,
                            21.527130764254046
                        ],
                        [
                            85.29714076711177,
                            21.53231229825431
                        ],
                        [
                            85.29570048989399,
                            21.534671114620952
                        ],
                        [
                            85.29667701334712,
                            21.549671582928916
                        ],
                        [
                            85.30235344578256,
                            21.550969153577416
                        ],
                        [
                            85.30201006277333,
                            21.55293118528986
                        ],
                        [
                            85.30277257212343,
                            21.554799575068408
                        ],
                        [
                            85.30764191891627,
                            21.560119262739423
                        ],
                        [
                            85.30686156813614,
                            21.562032208658753
                        ],
                        [
                            85.30491738829276,
                            21.56258069318138
                        ],
                        [
                            85.30236236171892,
                            21.561332080721353
                        ],
                        [
                            85.29891991325927,
                            21.562371118270363
                        ],
                        [
                            85.2876963656867,
                            21.57289007284839
                        ],
                        [
                            85.28174791505873,
                            21.582508422863487
                        ],
                        [
                            85.28029428788534,
                            21.58826956399036
                        ],
                        [
                            85.2836073586896,
                            21.59202860559768
                        ],
                        [
                            85.28729953827722,
                            21.594342845283958
                        ],
                        [
                            85.28621598276509,
                            21.597682748113947
                        ],
                        [
                            85.28514132456341,
                            21.599230022554995
                        ],
                        [
                            85.28011147669991,
                            21.597352731892133
                        ],
                        [
                            85.27298136494632,
                            21.60366236526421
                        ],
                        [
                            85.27319980370757,
                            21.608348853188094
                        ],
                        [
                            85.27142961157402,
                            21.611849290338515
                        ],
                        [
                            85.26214572657763,
                            21.619108651518435
                        ],
                        [
                            85.25932314960819,
                            21.623977989006598
                        ],
                        [
                            85.25888616072385,
                            21.627268800589327
                        ],
                        [
                            85.26029076675516,
                            21.63579021049137
                        ],
                        [
                            85.25901100376507,
                            21.639241557849857
                        ],
                        [
                            85.25132792964638,
                            21.650291149031936
                        ],
                        [
                            85.2449737413035,
                            21.6716413964242
                        ],
                        [
                            85.2419593657282,
                            21.67280961502455
                        ],
                        [
                            85.21849114440755,
                            21.671730579095257
                        ],
                        [
                            85.21527166475383,
                            21.67064248688401
                        ],
                        [
                            85.20498008010273,
                            21.670531025657283
                        ],
                        [
                            85.2015242514467,
                            21.661438927396134
                        ],
                        [
                            85.19769389375958,
                            21.65681932881871
                        ],
                        [
                            85.19122369674947,
                            21.655659918059836
                        ],
                        [
                            85.18794182272038,
                            21.65886154594097
                        ],
                        [
                            85.18519498400487,
                            21.654928617649304
                        ],
                        [
                            85.17745399920554,
                            21.649987950451326
                        ],
                        [
                            85.17913066012824,
                            21.646897831964854
                        ],
                        [
                            85.17881853396315,
                            21.6441688654582
                        ],
                        [
                            85.17769480190532,
                            21.642420833550148
                        ],
                        [
                            85.18861957664494,
                            21.638849169269527
                        ],
                        [
                            85.19100074200796,
                            21.635812497909903
                        ],
                        [
                            85.18950700107631,
                            21.63376131521958
                        ],
                        [
                            85.18615821168564,
                            21.63261083400201
                        ],
                        [
                            85.18454842124522,
                            21.630559630775977
                        ],
                        [
                            85.18556961847145,
                            21.62485201127975
                        ],
                        [
                            85.185217281864,
                            21.619639306183192
                        ],
                        [
                            85.18119964746411,
                            21.619157749676816
                        ],
                        [
                            85.17048442188847,
                            21.616098778313646
                        ],
                        [
                            85.16452708815534,
                            21.617971633014466
                        ],
                        [
                            85.16277910851336,
                            21.61649120787378
                        ],
                        [
                            85.16279698567764,
                            21.611742281759597
                        ],
                        [
                            85.16086613945484,
                            21.609218413251185
                        ],
                        [
                            85.14832274004459,
                            21.600282401212322
                        ],
                        [
                            85.14887121913924,
                            21.596411876430658
                        ],
                        [
                            85.14418911233044,
                            21.589634066577236
                        ],
                        [
                            85.15656312150078,
                            21.58407797366278
                        ],
                        [
                            85.1603087610951,
                            21.586637525250755
                        ],
                        [
                            85.16950787063438,
                            21.584479271339955
                        ],
                        [
                            85.18039701863094,
                            21.584309875931112
                        ],
                        [
                            85.18486952912137,
                            21.583003387700565
                        ],
                        [
                            85.18615821168564,
                            21.580350140564928
                        ],
                        [
                            85.18924838126296,
                            21.577737122401004
                        ],
                        [
                            85.19491583863488,
                            21.5745488787602
                        ],
                        [
                            85.19465724416267,
                            21.571869014470472
                        ],
                        [
                            85.2009445963991,
                            21.562197195433626
                        ],
                        [
                            85.19880868136892,
                            21.558290974427734
                        ],
                        [
                            85.20146180424358,
                            21.555731503159997
                        ],
                        [
                            85.20749498411305,
                            21.55334143067978
                        ],
                        [
                            85.20923404056292,
                            21.55124117832068
                        ],
                        [
                            85.2094480696244,
                            21.54951103262612
                        ],
                        [
                            85.20575595184455,
                            21.539669797004017
                        ],
                        [
                            85.20551961880074,
                            21.528209891826222
                        ],
                        [
                            85.2029779074997,
                            21.526890031437716
                        ],
                        [
                            85.20121209377149,
                            21.52680976702361
                        ],
                        [
                            85.19989664871864,
                            21.524700614506003
                        ],
                        [
                            85.20011964656976,
                            21.51587157850015
                        ],
                        [
                            85.19349786273365,
                            21.50879948038283
                        ],
                        [
                            85.17890765656206,
                            21.49721913363742
                        ],
                        [
                            85.17019462990865,
                            21.478281402325138
                        ],
                        [
                            85.15611273849576,
                            21.465439103542863
                        ],
                        [
                            85.15323662472443,
                            21.45838933547422
                        ],
                        [
                            85.15114530806636,
                            21.455749501174754
                        ],
                        [
                            85.14148694684529,
                            21.452699518384044
                        ],
                        [
                            85.13445933873159,
                            21.45755103149882
                        ],
                        [
                            85.12549654442466,
                            21.451852290480524
                        ],
                        [
                            85.11940097921942,
                            21.448967220952028
                        ],
                        [
                            85.10180539824594,
                            21.45190135919379
                        ],
                        [
                            85.09889360240476,
                            21.450942566677913
                        ],
                        [
                            85.09011809304984,
                            21.45026041238279
                        ],
                        [
                            85.08602013202122,
                            21.451522264349588
                        ],
                        [
                            85.07115354118359,
                            21.452650423392395
                        ],
                        [
                            85.06844235478856,
                            21.450411946612803
                        ],
                        [
                            85.06076827815716,
                            21.446452252834348
                        ],
                        [
                            85.05710738039316,
                            21.439340001901705
                        ],
                        [
                            85.05388786792383,
                            21.437828369381464
                        ],
                        [
                            85.03222555537877,
                            21.447821242269914
                        ],
                        [
                            85.02253590872712,
                            21.44991253792002
                        ],
                        [
                            85.01790740535249,
                            21.452311518486965
                        ],
                        [
                            85.01709583334275,
                            21.451031832621222
                        ],
                        [
                            85.01902659881009,
                            21.444820263282956
                        ],
                        [
                            85.01774688427422,
                            21.441890611795856
                        ],
                        [
                            85.01479936896622,
                            21.43873801285763
                        ],
                        [
                            85.00786546572706,
                            21.43729773845046
                        ],
                        [
                            85.00083352130078,
                            21.4383813081693
                        ],
                        [
                            84.9977879278164,
                            21.435077143317532
                        ],
                        [
                            84.99294981522863,
                            21.42205207289449
                        ],
                        [
                            84.9894583299624,
                            21.410458434048962
                        ],
                        [
                            84.98957870226249,
                            21.405959176520575
                        ],
                        [
                            84.99328424943633,
                            21.39565866341699
                        ],
                        [
                            84.99791724732255,
                            21.387052633288825
                        ],
                        [
                            84.99926834064063,
                            21.382152100479153
                        ],
                        [
                            85.0016718257966,
                            21.37845099043129
                        ],
                        [
                            85.00084684922658,
                            21.376020793984203
                        ],
                        [
                            85.00148896589661,
                            21.371811416017678
                        ],
                        [
                            85.00348666803835,
                            21.36860977777946
                        ],
                        [
                            85.00145778842244,
                            21.362911002616578
                        ],
                        [
                            85.00134180489303,
                            21.359210024025685
                        ],
                        [
                            85.0026483113612,
                            21.354380781162373
                        ],
                        [
                            85.00509639192721,
                            21.35113012467504
                        ],
                        [
                            85.00417333691082,
                            21.348329748839234
                        ],
                        [
                            85.00196162379994,
                            21.34585940179993
                        ],
                        [
                            85.00785658155654,
                            21.33196930504923
                        ],
                        [
                            85.00829357002445,
                            21.326310746233954
                        ],
                        [
                            85.00512756737687,
                            21.32075912443741
                        ],
                        [
                            85.00681315765605,
                            21.31286658890298
                        ],
                        [
                            85.01027786249541,
                            21.310440805035682
                        ],
                        [
                            85.01239145007719,
                            21.305281572193163
                        ],
                        [
                            85.02155937341058,
                            21.303141278597632
                        ],
                        [
                            85.02678547074818,
                            21.296688946967482
                        ],
                        [
                            85.0310661880659,
                            21.289469668273732
                        ],
                        [
                            85.027440928762,
                            21.28637949226476
                        ],
                        [
                            85.02298182299393,
                            21.288577784326076
                        ],
                        [
                            85.00419562812297,
                            21.29152083052797
                        ],
                        [
                            85.00139535409,
                            21.285331621650737
                        ],
                        [
                            84.9934982386766,
                            21.284818759580997
                        ],
                        [
                            84.98584648537589,
                            21.283530120406894
                        ],
                        [
                            84.97634858235425,
                            21.285229029588034
                        ],
                        [
                            84.96311844067982,
                            21.290530940093266
                        ],
                        [
                            84.95697821588699,
                            21.293817236407804
                        ],
                        [
                            84.91514737361076,
                            21.27277918469425
                        ],
                        [
                            84.89878250984447,
                            21.25880886457705
                        ],
                        [
                            84.8953802396508,
                            21.254380998141286
                        ],
                        [
                            84.89740015116722,
                            21.248459277851207
                        ],
                        [
                            84.91301598324266,
                            21.237222367648762
                        ],
                        [
                            84.92436883084167,
                            21.226841548273335
                        ],
                        [
                            84.92669648014332,
                            21.21990767679331
                        ],
                        [
                            84.93039751552153,
                            21.213129875946734
                        ],
                        [
                            84.93316661943841,
                            21.205892686244955
                        ],
                        [
                            84.93434826463539,
                            21.198512931774008
                        ],
                        [
                            84.93717983904844,
                            21.192292434109792
                        ],
                        [
                            84.94323526589238,
                            21.190040623273656
                        ],
                        [
                            84.96221763795371,
                            21.186357343214116
                        ],
                        [
                            84.96427333963439,
                            21.182379892695607
                        ],
                        [
                            84.96415735862124,
                            21.180119132204748
                        ],
                        [
                            84.96395675297738,
                            21.175851720832426
                        ],
                        [
                            84.95966257264881,
                            21.16321016458981
                        ],
                        [
                            84.96246294478831,
                            21.159308450256304
                        ],
                        [
                            84.9675373806345,
                            21.156062246250983
                        ],
                        [
                            84.96230242373798,
                            21.1493601994088
                        ],
                        [
                            84.95665714201097,
                            21.143590173939355
                        ],
                        [
                            84.94954048670108,
                            21.14341175088675
                        ],
                        [
                            84.94616041522269,
                            21.14807150973324
                        ],
                        [
                            84.94510814132519,
                            21.154590768422082
                        ],
                        [
                            84.94873777185356,
                            21.164552344632046
                        ],
                        [
                            84.94373470013893,
                            21.170692569898975
                        ],
                        [
                            84.93363929637648,
                            21.17285966919098
                        ],
                        [
                            84.92793164192695,
                            21.17575809196391
                        ],
                        [
                            84.92397194278752,
                            21.176030152217177
                        ],
                        [
                            84.92307122850953,
                            21.173430429583867
                        ],
                        [
                            84.92653593651573,
                            21.171138437828574
                        ],
                        [
                            84.92292854921784,
                            21.165569087981833
                        ],
                        [
                            84.92769531973565,
                            21.161390858836402
                        ],
                        [
                            84.92675891806601,
                            21.15698979334785
                        ],
                        [
                            84.9271155913876,
                            21.15360082254938
                        ],
                        [
                            84.93006755241126,
                            21.15191978204205
                        ],
                        [
                            84.92819028450738,
                            21.14746062918013
                        ],
                        [
                            84.92241574288143,
                            21.143621368908757
                        ],
                        [
                            84.91623540444506,
                            21.137039745092547
                        ],
                        [
                            84.90368753186273,
                            21.140798756962802
                        ],
                        [
                            84.89737789708568,
                            21.14668926042238
                        ],
                        [
                            84.88474077361542,
                            21.14957869006872
                        ],
                        [
                            84.87992943206291,
                            21.15220068109874
                        ],
                        [
                            84.87769096939971,
                            21.15495194179944
                        ],
                        [
                            84.87420839584495,
                            21.160160209751012
                        ],
                        [
                            84.85916338944877,
                            21.161462239723143
                        ],
                        [
                            84.85156950950427,
                            21.161671772437632
                        ],
                        [
                            84.84488533799504,
                            21.163999426861675
                        ],
                        [
                            84.81696243730183,
                            21.167642503603652
                        ],
                        [
                            84.80069562841938,
                            21.162001786727767
                        ],
                        [
                            84.79322220738082,
                            21.161930390646123
                        ],
                        [
                            84.7932890922542,
                            21.15769878698138
                        ],
                        [
                            84.79461793508857,
                            21.154077968166717
                        ],
                        [
                            84.79886741244812,
                            21.15105912129502
                        ],
                        [
                            84.80416034389839,
                            21.151001154905888
                        ],
                        [
                            84.81263710081188,
                            21.14023245248593
                        ],
                        [
                            84.81096050870194,
                            21.135978469559443
                        ],
                        [
                            84.80634088886335,
                            21.13211241969626
                        ],
                        [
                            84.80014716182865,
                            21.135862518151225
                        ],
                        [
                            84.7978953601244,
                            21.132072266423304
                        ],
                        [
                            84.79397577241369,
                            21.12856294408656
                        ],
                        [
                            84.78891919517864,
                            21.130582971498377
                        ],
                        [
                            84.78507990056212,
                            21.13379793170202
                        ],
                        [
                            84.77300464889814,
                            21.14077198695855
                        ],
                        [
                            84.75762968443553,
                            21.145199869801655
                        ],
                        [
                            84.74246870979566,
                            21.16331278423713
                        ],
                        [
                            84.73874536476418,
                            21.16599268970841
                        ],
                        [
                            84.72747718024264,
                            21.15982125701252
                        ],
                        [
                            84.72350412776855,
                            21.154720056014675
                        ],
                        [
                            84.72104719929442,
                            21.14746952657647
                        ],
                        [
                            84.71903170265945,
                            21.144370517881413
                        ],
                        [
                            84.71219586689666,
                            21.145721618420126
                        ],
                        [
                            84.70458422648018,
                            21.14903025214765
                        ],
                        [
                            84.69516213551121,
                            21.150510658096668
                        ],
                        [
                            84.6856686957628,
                            21.14865126211499
                        ],
                        [
                            84.67900680488547,
                            21.14412077859029
                        ],
                        [
                            84.67650520531242,
                            21.136179130021
                        ],
                        [
                            84.67450753362122,
                            21.12362233434096
                        ],
                        [
                            84.67024913447386,
                            21.118200034456517
                        ],
                        [
                            84.66805079052553,
                            21.111154652199765
                        ],
                        [
                            84.66570975596368,
                            21.102361321076792
                        ],
                        [
                            84.66419365068103,
                            21.090491210663917
                        ],
                        [
                            84.66432293377079,
                            21.081479325037186
                        ],
                        [
                            84.66673983566841,
                            21.07421099169686
                        ],
                        [
                            84.67759772373343,
                            21.066532428803075
                        ],
                        [
                            84.67666573732674,
                            21.059139250691782
                        ],
                        [
                            84.67224232601484,
                            21.059081227993634
                        ],
                        [
                            84.66195070247976,
                            21.064940534318847
                        ],
                        [
                            84.65873125474354,
                            21.06977865403681
                        ],
                        [
                            84.65424987406634,
                            21.071660401842028
                        ],
                        [
                            84.64940725736476,
                            21.076890885935846
                        ],
                        [
                            84.64523353853853,
                            21.079419254114377
                        ],
                        [
                            84.63098223248024,
                            21.077889762738536
                        ],
                        [
                            84.62647409929284,
                            21.075178666507966
                        ],
                        [
                            84.62436496586724,
                            21.07759099424254
                        ],
                        [
                            84.59306207016616,
                            21.06156056244557
                        ],
                        [
                            84.58262781745357,
                            21.05890739726607
                        ],
                        [
                            84.573455390936,
                            21.05928192842666
                        ],
                        [
                            84.56516151410972,
                            21.060860418374286
                        ],
                        [
                            84.55586423584413,
                            21.066938209770097
                        ],
                        [
                            84.54911763665577,
                            21.066510160798476
                        ],
                        [
                            84.5433966143405,
                            21.06946207330956
                        ],
                        [
                            84.5381081143843,
                            21.073849814204426
                        ],
                        [
                            84.5285879706701,
                            21.083731138431407
                        ],
                        [
                            84.52233180998914,
                            21.082692198745367
                        ],
                        [
                            84.51570109483164,
                            21.08312921461959
                        ],
                        [
                            84.50746067240732,
                            21.08477016136895
                        ],
                        [
                            84.50035736843797,
                            21.083419051912188
                        ],
                        [
                            84.49581802886541,
                            21.07798788403821
                        ],
                        [
                            84.49001228506371,
                            21.075847520784855
                        ],
                        [
                            84.47841860044493,
                            21.077680174895075
                        ],
                        [
                            84.47258606571198,
                            21.07384979931286
                        ],
                        [
                            84.464631045558,
                            21.066189067570257
                        ],
                        [
                            84.45160597478534,
                            21.05129122832128
                        ],
                        [
                            84.44462749562496,
                            21.036549432030082
                        ],
                        [
                            84.4380503674936,
                            21.03551942240902
                        ],
                        [
                            84.43541498320154,
                            21.029660144261065
                        ],
                        [
                            84.42358946807632,
                            21.03605889768281
                        ],
                        [
                            84.41474265207815,
                            21.03230884390174
                        ],
                        [
                            84.40389360670068,
                            21.025860998658572
                        ],
                        [
                            84.42207336638836,
                            21.018498994724425
                        ],
                        [
                            84.42814667294493,
                            21.014811341330187
                        ],
                        [
                            84.42916783063346,
                            21.009299854609985
                        ],
                        [
                            84.42358946807633,
                            21.00368138790198
                        ],
                        [
                            84.41517512638528,
                            21.000894484933696
                        ],
                        [
                            84.4097082919151,
                            20.99661816913646
                        ],
                        [
                            84.40509755186099,
                            20.9879408116709
                        ],
                        [
                            84.40062064950132,
                            20.97401946295712
                        ],
                        [
                            84.39486840359436,
                            20.968940558787615
                        ],
                        [
                            84.38585657041148,
                            20.967161313940615
                        ],
                        [
                            84.37832517873288,
                            20.96363871501201
                        ],
                        [
                            84.3715116383652,
                            20.95363242474261
                        ],
                        [
                            84.3657683402569,
                            20.949882369950693
                        ],
                        [
                            84.36142514262765,
                            20.950359447099334
                        ],
                        [
                            84.35849109932396,
                            20.954100655578355
                        ],
                        [
                            84.35381344781453,
                            20.953739450037098
                        ],
                        [
                            84.34687952457352,
                            20.95071618174316
                        ],
                        [
                            84.33834042165442,
                            20.9503728107262
                        ],
                        [
                            84.33352457533185,
                            20.94792925132496
                        ],
                        [
                            84.32541788051013,
                            20.94722021279076
                        ],
                        [
                            84.320120530963,
                            20.943242786281694
                        ],
                        [
                            84.31175074488166,
                            20.940121341220486
                        ],
                        [
                            84.30610553931308,
                            20.93166244497556
                        ],
                        [
                            84.30187383179396,
                            20.932661315118697
                        ],
                        [
                            84.29765105748781,
                            20.93492205355874
                        ],
                        [
                            84.29332574478902,
                            20.930868762847936
                        ],
                        [
                            84.2879570131708,
                            20.927448589588312
                        ],
                        [
                            84.28143332468457,
                            20.923810017915407
                        ],
                        [
                            84.27603339160095,
                            20.922168992589558
                        ],
                        [
                            84.26853758035867,
                            20.913433637662298
                        ],
                        [
                            84.26405177305324,
                            20.90938035411633
                        ],
                        [
                            84.26658449716243,
                            20.904488654607878
                        ],
                        [
                            84.26030612306707,
                            20.900051857417843
                        ],
                        [
                            84.25965956597202,
                            20.89425062556909
                        ],
                        [
                            84.26196933198567,
                            20.890571827325296
                        ],
                        [
                            84.26069850570785,
                            20.884311238007108
                        ],
                        [
                            84.31175074488166,
                            20.85782861490624
                        ],
                        [
                            84.32666645178287,
                            20.848678562467086
                        ],
                        [
                            84.3361197414151,
                            20.841401324767503
                        ],
                        [
                            84.34487742544613,
                            20.836420518459544
                        ],
                        [
                            84.350473600094,
                            20.830472045388642
                        ],
                        [
                            84.3544020957485,
                            20.821669791312726
                        ],
                        [
                            84.35224829129965,
                            20.80315119038149
                        ],
                        [
                            84.35352365468994,
                            20.79304237445368
                        ],
                        [
                            84.34942572175217,
                            20.785484206289667
                        ],
                        [
                            84.35045578792224,
                            20.776240464589442
                        ],
                        [
                            84.35630166279466,
                            20.76657318074295
                        ],
                        [
                            84.36530453989532,
                            20.75749887094753
                        ],
                        [
                            84.37686252546594,
                            20.75114024496367
                        ],
                        [
                            84.39177823326315,
                            20.748170415449707
                        ],
                        [
                            84.40180229560016,
                            20.74294880346731
                        ],
                        [
                            84.40950766519728,
                            20.74072816350116
                        ],
                        [
                            84.41966991359446,
                            20.736188861036187
                        ],
                        [
                            84.43271722497785,
                            20.73749093159885
                        ],
                        [
                            84.45044663719035,
                            20.737959069099585
                        ],
                        [
                            84.46127330302208,
                            20.732278238392855
                        ],
                        [
                            84.47012911403537,
                            20.7289517564247
                        ],
                        [
                            84.4804385707867,
                            20.72166105875744
                        ],
                        [
                            84.50549421222702,
                            20.710018346249107
                        ],
                        [
                            84.51595080338689,
                            20.699909564482887
                        ],
                        [
                            84.52906951822466,
                            20.692529805266105
                        ],
                        [
                            84.54238888776715,
                            20.689582300356086
                        ],
                        [
                            84.56501881871144,
                            20.681631766698526
                        ],
                        [
                            84.57428034130243,
                            20.675768020156152
                        ],
                        [
                            84.58187866849796,
                            20.668892075012742
                        ],
                        [
                            84.59944747288348,
                            20.644148522887875
                        ],
                        [
                            84.61163426247889,
                            20.63407100060738
                        ],
                        [
                            84.61995047786796,
                            20.62570120745994
                        ],
                        [
                            84.63098223248024,
                            20.61902154546523
                        ],
                        [
                            84.70507021123808,
                            20.60581812708054
                        ],
                        [
                            84.71357818527977,
                            20.606549400138874
                        ],
                        [
                            84.72766897800331,
                            20.611958278398564
                        ],
                        [
                            84.73506210874784,
                            20.610067583924806
                        ],
                        [
                            84.73992699795481,
                            20.60732970491896
                        ],
                        [
                            84.74501038842136,
                            20.605688819085177
                        ],
                        [
                            84.7572862859814,
                            20.602959824197367
                        ],
                        [
                            84.77176499378601,
                            20.596008091511305
                        ],
                        [
                            84.77606356569409,
                            20.59202161157295
                        ],
                        [
                            84.78772862103976,
                            20.575170667095055
                        ],
                        [
                            84.79399806708535,
                            20.57323098889968
                        ],
                        [
                            84.81888430555428,
                            20.554150530030988
                        ],
                        [
                            84.83995803461596,
                            20.527569831988906
                        ],
                        [
                            84.84504141995671,
                            20.52208069087037
                        ]
                    ]
                ]
            }
        }
    ]
}